NORAD_CAT_ID,OBJECT_NAME,OBJECT_TYPE,EPOCH,MEAN_MOTION,ECCENTRICITY,INCLINATION,RA_OF_ASC_NODE,ARG_OF_PERICENTER,MEAN_ANOMALY,BSTAR,MEAN_MOTION_DOT,MEAN_MOTION_DDOT,TLE_LINE0,TLE_LINE1,TLE_LINE2,SEMIMAJOR_AXIS,PERIOD,APOGEE,PERIGEE,DECAYED
50806.0,STARLINK-3335,PAYLOAD,2022-01-21 22:00:00,15.7676003,0.0001077,53.2173,124.7603,56.4418,327.1097,-0.0055074,-0.00820767,0.0,0 STARLINK-3335,1 50806U 22001D   22021.91667824 -.00820767  00000-0 -55074-2 0  9999,2 50806  53.2173 124.7603 0001077  56.4418 327.1097 15.76760030  2925,6717.764,91.327,340.353,338.906,0.0
50806.0,STARLINK-3335,PAYLOAD,2022-01-22 06:00:00,15.76173543,0.0001302,53.2174,123.1012,51.0305,65.3679,-0.0056403999999999,-0.00819144,0.0,0 STARLINK-3335,1 50806U 22001D   22022.25001157 -.00819144  00000-0 -56404-2 0  9993,2 50806  53.2174 123.1012 0001302  51.0305  65.3679 15.76173543  3723,6719.431,91.36,342.171,340.421,0.0
50806.0,STARLINK-3335,PAYLOAD,2022-01-22 14:00:01,15.75544234,0.0001223,53.217,121.447,72.3173,136.2427,-0.0053391,-0.00759477,0.0,0 STARLINK-3335,1 50806U 22001D   22022.58334491 -.00759477  00000-0 -53391-2 0  9993,2 50806  53.2170 121.4470 0001223  72.3173 136.2427 15.75544234  3030,6721.22,91.397,343.907,342.2630000000001,0.0
50806.0,STARLINK-3335,PAYLOAD,2022-01-22 22:00:00,15.75002655,0.0001082,53.2175,119.7917,74.4025,225.5751,-0.0059555,-0.00821057,0.0,0 STARLINK-3335,1 50806U 22001D   22022.91667824 -.00821057  00000-0 -59555-2 0  9991,2 50806  53.2175 119.7917 0001082  74.4025 225.5751 15.75002655  3086,6722.761,91.428,345.353,343.898,0.0
50806.0,STARLINK-3335,PAYLOAD,2022-01-23 06:00:00,15.74415186,0.0001230999999999,53.2177,118.1374,47.4089,343.3034,-0.0060821,-0.00817597,0.0,0 STARLINK-3335,1 50806U 22001D   22023.25001157 -.00817597  00000-0 -60821-2 0  9992,2 50806  53.2177 118.1374 0001231  47.4089 343.3034 15.74415186  3881,6724.433000000001,91.463,347.126,345.47,0.0
50806.0,STARLINK-3335,PAYLOAD,2022-01-23 14:00:01,15.73777237,0.0001512,53.2175,116.4877,38.9373,81.8141,-0.0052313,-0.00694258,0.0,0 STARLINK-3335,1 50806U 22001D   22023.58334491 -.00694258  00000-0 -52313-2 0  9992,2 50806  53.2175 116.4877 0001512  38.9373  81.8141 15.73777237  3195,6726.25,91.5,349.13199999999995,347.098,0.0
50806.0,STARLINK-3335,PAYLOAD,2022-01-23 22:00:00,15.73209189,0.000127,53.2173,114.8363,58.5609,151.5089,-6.9874e-05,-0.00010418,0.0,0 STARLINK-3335,1 50806U 22001D   22023.91667824 -.00010418  00000-0 -69874-4 0  9990,2 50806  53.2173 114.8363 0001270  58.5609 151.5089 15.73209189  3985,6727.869000000002,91.533,350.588,348.88,0.0
50806.0,STARLINK-3335,PAYLOAD,2022-01-24 14:00:01,15.73249257,0.000157,53.2143,111.5355,41.9957,346.1377,-0.00045641,-0.00064323,0.0,0 STARLINK-3335,1 50806U 22001D   22024.58334491 -.00064323  00000-0 -45641-3 0  9994,2 50806  53.2143 111.5355 0001570  41.9957 346.1377 15.73249257  4097,6727.755,91.53,350.676,348.56300000000016,0.0
50806.0,STARLINK-3335,PAYLOAD,2022-01-24 22:00:00,15.73220245,0.0001662,53.2141,109.8846,46.9101,70.1711,-0.00072624,-0.00101416,0.0,0 STARLINK-3335,1 50806U 22001D   22024.91667824 -.00101416  00000-0 -72624-3 0  9996,2 50806  53.2141 109.8846 0001662  46.9101  70.1711 15.73220245  3415,6727.837,91.532,350.821,348.584,0.0
50806.0,STARLINK-3335,PAYLOAD,2022-01-25 00:00:00,15.7317004,0.0001665,53.2143,109.4718,49.6445,179.6812,-0.00012495,-0.00018097,0.0,0 STARLINK-3335,1 50806U 22001D   22025.00001157 -.00018097  00000-0 -12495-3 0  9990,2 50806  53.2143 109.4718 0001665  49.6445 179.6812 15.73170040  4151,6727.981,91.535,350.966,348.725,0.0
50806.0,STARLINK-3335,PAYLOAD,2022-01-27 14:00:01,15.73120853,0.0001998,53.2142,96.6894,43.7394,64.8334,0.00048843,0.00068256,0.0,0 STARLINK-3335,1 50806U 22001D   22027.58334491  .00068256  00000-0  48843-3 0  9991,2 50806  53.2142  96.6894 0001998  43.7394  64.8334 15.73120853  3744,6728.121,91.538,351.33,348.642,0.0
50806.0,STARLINK-3335,PAYLOAD,2022-01-27 16:00:00,15.73127482,0.0001996,53.2137,96.277,42.7099,178.0752,0.00053112,0.00074352,0.0,0 STARLINK-3335,1 50806U 22001D   22027.66667824  .00074352  00000-0  53112-3 0  9998,2 50806  53.2137  96.2770 0001996  42.7099 178.0752 15.73127482  4575,6728.102,91.537,351.31,348.624,0.0
50806.0,STARLINK-3335,PAYLOAD,2022-01-28 06:00:02,15.73203736,0.0001857,53.2143,93.3886,50.6424,235.7492,0.00015744,0.00021536,0.0,0 STARLINK-3335,1 50806U 22001D   22028.25002315  .00021536  00000-0  15744-3 0  9997,2 50806  53.2143  93.3886 0001857  50.6424 235.7492 15.73203736  4663,6727.885,91.533,350.999,348.5,0.0
50806.0,STARLINK-3335,PAYLOAD,2022-01-28 12:00:00,15.73199354,0.0002073,53.2144,92.1532,45.7103,217.3156,0.00025809,0.00035756,0.0,0 STARLINK-3335,1 50806U 22001D   22028.50001157  .00035756  00000-0  25809-3 0  9990,2 50806  53.2144  92.1532 0002073  45.7103 217.3156 15.73199354  3717,6727.897,91.533,351.157,348.367,0.0
50806.0,STARLINK-3335,PAYLOAD,2022-01-28 22:00:00,15.732619199999998,0.0001883,53.2146,90.0897,44.6584,59.5557,-0.00044561,-0.00062864,0.0,0 STARLINK-3335,1 50806U 22001D   22028.91667824 -.00062864  00000-0 -44561-3 0  9992,2 50806  53.2146  90.0897 0001883  44.6584  59.5557 15.73261920  3708,6727.719,91.53,350.85,348.31699999999995,0.0
50806.0,STARLINK-3335,PAYLOAD,2022-01-29 06:00:00,15.73220018,0.0001856,53.2146,88.4403,45.0373,148.1521,0.00013289,0.00018086,0.0,0 STARLINK-3335,1 50806U 22001D   22029.25001157  .00018086  00000-0  13289-3 0  9999,2 50806  53.2146  88.4403 0001856  45.0373 148.1521 15.73220018  4826,6727.8380000000025,91.532,350.952,348.454,0.0
50806.0,STARLINK-3335,PAYLOAD,2022-01-29 14:00:01,15.73235606,0.0002013,53.2142,86.7926,38.2519,243.8967,-6.7902e-05,-0.00010155,0.0,0 STARLINK-3335,1 50806U 22001D   22029.58334491 -.00010155  00000-0 -67902-4 0  9998,2 50806  53.2142  86.7926 0002013  38.2519 243.8967 15.73235606  3730,6727.794,91.531,351.01300000000015,348.30400000000014,0.0
50806.0,STARLINK-3335,PAYLOAD,2022-01-29 22:00:00,15.73194885,0.0001701,53.214,85.141,39.8292,331.3057,0.00035397,0.00049339,0.0,0 STARLINK-3335,1 50806U 22001D   22029.91667824  .00049339  00000-0  35397-3 0  9990,2 50806  53.2140  85.1410 0001701  39.8292 331.3057 15.73194885  3733,6727.91,91.533,350.9190000000001,348.63,0.0
50806.0,STARLINK-3335,PAYLOAD,2022-01-30 06:00:00,15.73272724,0.0001692,53.2142,83.4916,37.9678,62.1081,-0.00063155,-0.00088606,0.0,0 STARLINK-3335,1 50806U 22001D   22030.25001157 -.00088606  00000-0 -63155-3 0  9995,2 50806  53.2142  83.4916 0001692  37.9678  62.1081 15.73272724  4986,6727.688,91.529,350.691,348.415,0.0
50806.0,STARLINK-3335,PAYLOAD,2022-01-30 14:00:01,15.7319736,0.0001921,53.2143,81.8437,32.1547,156.8905,-0.00016028,-0.00023052,0.0,0 STARLINK-3335,1 50806U 22001D   22030.58334491 -.00023052  00000-0 -16028-3 0  9992,2 50806  53.2143  81.8437 0001921  32.1547 156.8905 15.73197360  3734,6727.903,91.533,351.06,348.475,0.0
50806.0,STARLINK-3335,PAYLOAD,2022-01-30 22:00:00,15.73180107,0.0001803,53.2143,80.1922,37.7501,240.2173,-3.1488e-05,-5.034e-05,0.0,0 STARLINK-3335,1 50806U 22001D   22030.91667824 -.00005034  00000-0 -31488-4 0  9996,2 50806  53.2143  80.1922 0001803  37.7501 240.2173 15.73180107  5081,6727.9519999999975,91.534,351.03,348.60400000000016,0.0
50806.0,STARLINK-3335,PAYLOAD,2022-01-31 14:00:01,15.73223105,0.0001987,53.214,76.8948,27.8885,67.9719,0.00014325,0.00019551,0.0,0 STARLINK-3335,1 50806U 22001D   22031.58335648  .00019551  00000-0  14325-3 0  9993,2 50806  53.2140  76.8948 0001987  27.8885  67.9719 15.73223105  5194,6727.829000000002,91.532,351.031,348.357,0.0
50806.0,STARLINK-3335,PAYLOAD,2022-01-31 22:00:01,15.73190043,0.000184,53.2147,75.243,35.4536,149.3985,0.00031598,0.0004394,0.0,0 STARLINK-3335,1 50806U 22001D   22031.91668981  .00043940  00000-0  31598-3 0  9999,2 50806  53.2147  75.2430 0001840  35.4536 149.3985 15.73190043  3716,6727.924,91.534,351.026,348.551,0.0
50806.0,STARLINK-3335,PAYLOAD,2022-02-01 06:00:00,15.73244517,0.000204,53.2156,73.594,42.2622,231.4699,-0.00056654,-0.00079542,0.0,0 STARLINK-3335,1 50806U 22001D   22032.25001157 -.00079542  00000-0 -56654-3 0  9992,2 50806  53.2156  73.5940 0002040  42.2622 231.4699 15.73244517  5294,6727.768,91.531,351.006,348.261,0.0
50806.0,STARLINK-3335,PAYLOAD,2022-02-01 14:00:01,15.73189365,0.0002238,53.2157,71.9458,37.4595,325.2661,0.00010182,0.00013686,0.0,0 STARLINK-3335,1 50806U 22001D   22032.58335648  .00013686  00000-0  10182-3 0  9994,2 50806  53.2157  71.9458 0002238  37.4595 325.2661 15.73189365  3710,6727.925,91.534,351.296,348.285,0.0
50806.0,STARLINK-3335,PAYLOAD,2022-02-01 22:00:00,15.73152587,0.0001921,53.2159,70.2941,39.0421,52.5561,0.00017857,0.00024464,0.0,0 STARLINK-3335,1 50806U 22001D   22032.91667824  .00024464  00000-0  17857-3 0  9997,2 50806  53.2159  70.2941 0001921  39.0421  52.5561 15.73152587  5408,6728.03,91.536,351.18800000000016,348.603,0.0
50806.0,STARLINK-3335,PAYLOAD,2022-02-02 14:00:01,15.73116677,0.0002137,53.2152,66.9969,31.1558,238.1977,0.00032382,0.00044909,0.0,0 STARLINK-3335,1 50806U 22001D   22033.58334491  .00044909  00000-0  32382-3 0  9998,2 50806  53.2152  66.9969 0002137  31.1558 238.1977 15.73116677  5501,6728.1330000000025,91.538,351.436,348.56,0.0
50806.0,STARLINK-3335,PAYLOAD,2022-02-02 22:00:00,15.73203761,0.000193,53.2173,65.3485,35.6031,322.4973,7.5435e-06,4.38e-06,0.0,0 STARLINK-3335,1 50806U 22001D   22033.91667824  .00000438  00000-0  75435-5 0  9991,2 50806  53.2173  65.3485 0001930  35.6031 322.4973 15.73203761  5554,6727.884,91.533,351.048,348.451,0.0
50806.0,STARLINK-3335,PAYLOAD,2022-02-03 06:00:00,15.73289658,0.0002057,53.216,63.6976,38.9211,48.2446,-0.00074624,-0.00104471,0.0,0 STARLINK-3335,1 50806U 22001D   22034.25001157 -.00104471  00000-0 -74624-3 0  9991,2 50806  53.2160  63.6976 0002057  38.9211  48.2446 15.73289658  5617,6727.64,91.528,350.88800000000015,348.121,0.0
